[{"OBJECT_NAME":"SDA_1668","OBJECT_ID":"2025-230E","EPOCH":"2026-03-09T17:28:24.297600","MEAN_MOTION":13.85494162,"ECCENTRICITY":0.00045481,"INCLINATION":81.3,"RA_OF_ASC_NODE":303.8056,"ARG_OF_PERICENTER":118.5208,"MEAN_ANOMALY":241.6407,"EPHEMERIS_TYPE":0,"CLASSIFICATION_TYPE":"U","NORAD_CAT_ID":65978,"ELEMENT_SET_NO":999,"REV_AT_EPOCH":2005,"BSTAR":0.00023740567,"MEAN_MOTION_DOT":2.83e-6,"MEAN_MOTION_DDOT":0},{"OBJECT_NAME":"DIAMANT R\/B","OBJECT_ID":"1965-096B","EPOCH":"2026-03-09T06:37:58.450944","MEAN_MOTION":13.87748546,"ECCENTRICITY":0.05835308,"INCLINATION":34.2444,"RA_OF_ASC_NODE":152.0838,"ARG_OF_PERICENTER":53.3256,"MEAN_ANOMALY":311.9607,"EPHEMERIS_TYPE":0,"CLASSIFICATION_TYPE":"U","NORAD_CAT_ID":1805,"ELEMENT_SET_NO":999,"REV_AT_EPOCH":99082,"BSTAR":0.00024432239,"MEAN_MOTION_DOT":1.159e-5,"MEAN_MOTION_DDOT":0}]
